CCSDS_OMM_VERS = 2.0
CREATION_DATE  = 
ORIGINATOR     = 

OBJECT_NAME    = ERS-1
OBJECT_ID      = 1991-050A
CENTER_NAME    = EARTH
REF_FRAME      = TEME
TIME_SYSTEM    = UTC
MEAN_ELEMENT_THEORY = SGP/SGP4

EPOCH          = 2026-03-26T12:27:15.718752
MEAN_MOTION    = 14.39461613
ECCENTRICITY   = .0032573
INCLINATION    = 98.7869
RA_OF_ASC_NODE = 104.1758
ARG_OF_PERICENTER = 150.6960
MEAN_ANOMALY   = 209.6062

EPHEMERIS_TYPE = 0
CLASSIFICATION_TYPE = U
NORAD_CAT_ID   = 21574
ELEMENT_SET_NO = 999
REV_AT_EPOCH   = 81815
BSTAR          = .10977E-3
MEAN_MOTION_DOT = .298E-5
MEAN_MOTION_DDOT = 0

CCSDS_OMM_VERS = 2.0
CREATION_DATE  = 
ORIGINATOR     = 

OBJECT_NAME    = ARIANE 40 R/B
OBJECT_ID      = 1991-050F
CENTER_NAME    = EARTH
REF_FRAME      = TEME
TIME_SYSTEM    = UTC
MEAN_ELEMENT_THEORY = SGP/SGP4

EPOCH          = 2026-03-26T02:43:50.145312
MEAN_MOTION    = 14.42905128
ECCENTRICITY   = .00036939
INCLINATION    = 98.1979
RA_OF_ASC_NODE = 136.7312
ARG_OF_PERICENTER = 44.4428
MEAN_ANOMALY   = 315.7059

EPHEMERIS_TYPE = 0
CLASSIFICATION_TYPE = U
NORAD_CAT_ID   = 21610
ELEMENT_SET_NO = 999
REV_AT_EPOCH   = 82136
BSTAR          = .10031838E-3
MEAN_MOTION_DOT = .294E-5
MEAN_MOTION_DDOT = 0

CCSDS_OMM_VERS = 2.0
CREATION_DATE  = 
ORIGINATOR     = 

OBJECT_NAME    = INTERCOSMOS 25
OBJECT_ID      = 1991-086A
CENTER_NAME    = EARTH
REF_FRAME      = TEME
TIME_SYSTEM    = UTC
MEAN_ELEMENT_THEORY = SGP/SGP4

EPOCH          = 2026-03-26T07:58:37.562880
MEAN_MOTION    = 12.12054567
ECCENTRICITY   = .1486624
INCLINATION    = 82.6020
RA_OF_ASC_NODE = 299.9474
ARG_OF_PERICENTER = 81.0745
MEAN_ANOMALY   = 295.5123

EPHEMERIS_TYPE = 0
CLASSIFICATION_TYPE = U
NORAD_CAT_ID   = 21819
ELEMENT_SET_NO = 999
REV_AT_EPOCH   = 49870
BSTAR          = .26319E-3
MEAN_MOTION_DOT = .1379E-4
MEAN_MOTION_DDOT = 0

CCSDS_OMM_VERS = 2.0
CREATION_DATE  = 
ORIGINATOR     = 

OBJECT_NAME    = SL-8 R/B
OBJECT_ID      = 1992-008B
CENTER_NAME    = EARTH
REF_FRAME      = TEME
TIME_SYSTEM    = UTC
MEAN_ELEMENT_THEORY = SGP/SGP4

EPOCH          = 2026-03-26T10:33:58.388832
MEAN_MOTION    = 13.75969568
ECCENTRICITY   = .0035979
INCLINATION    = 82.9228
RA_OF_ASC_NODE = 255.3140
ARG_OF_PERICENTER = 88.1350
MEAN_ANOMALY   = 300.9903

EPHEMERIS_TYPE = 0
CLASSIFICATION_TYPE = U
NORAD_CAT_ID   = 21876
ELEMENT_SET_NO = 999
REV_AT_EPOCH   = 71172
BSTAR          = .12388E-4
MEAN_MOTION_DOT = .28E-6
MEAN_MOTION_DDOT = 0

CCSDS_OMM_VERS = 2.0
CREATION_DATE  = 
ORIGINATOR     = 

OBJECT_NAME    = SL-8 R/B
OBJECT_ID      = 1992-020B
CENTER_NAME    = EARTH
REF_FRAME      = TEME
TIME_SYSTEM    = UTC
MEAN_ELEMENT_THEORY = SGP/SGP4

EPOCH          = 2026-03-26T09:53:24.989856
MEAN_MOTION    = 13.75550460
ECCENTRICITY   = .0027679
INCLINATION    = 82.9309
RA_OF_ASC_NODE = 141.3460
ARG_OF_PERICENTER = 249.8780
MEAN_ANOMALY   = 121.0421

EPHEMERIS_TYPE = 0
CLASSIFICATION_TYPE = U
NORAD_CAT_ID   = 21938
ELEMENT_SET_NO = 999
REV_AT_EPOCH   = 70343
BSTAR          = .13639E-4
MEAN_MOTION_DOT = .28E-6
MEAN_MOTION_DDOT = 0

CCSDS_OMM_VERS = 2.0
CREATION_DATE  = 
ORIGINATOR     = 

OBJECT_NAME    = USA 81
OBJECT_ID      = 1992-023A
CENTER_NAME    = EARTH
REF_FRAME      = TEME
TIME_SYSTEM    = UTC
MEAN_ELEMENT_THEORY = SGP/SGP4

EPOCH          = 2026-03-26T11:52:03.439200
MEAN_MOTION    = 14.32373221
ECCENTRICITY   = .000188
INCLINATION    = 85.0051
RA_OF_ASC_NODE = 121.7436
ARG_OF_PERICENTER = 68.1838
MEAN_ANOMALY   = 291.9554

EPHEMERIS_TYPE = 0
CLASSIFICATION_TYPE = U
NORAD_CAT_ID   = 21949
ELEMENT_SET_NO = 999
REV_AT_EPOCH   = 9719
BSTAR          = .53417E-4
MEAN_MOTION_DOT = .164E-5
MEAN_MOTION_DDOT = 0

CCSDS_OMM_VERS = 2.0
CREATION_DATE  = 
ORIGINATOR     = 

OBJECT_NAME    = COSMOS 2219
OBJECT_ID      = 1992-076A
CENTER_NAME    = EARTH
REF_FRAME      = TEME
TIME_SYSTEM    = UTC
MEAN_ELEMENT_THEORY = SGP/SGP4

EPOCH          = 2026-03-26T10:15:26.001792
MEAN_MOTION    = 14.14091646
ECCENTRICITY   = .0018031
INCLINATION    = 71.0628
RA_OF_ASC_NODE = 343.0826
ARG_OF_PERICENTER = 182.7023
MEAN_ANOMALY   = 177.4005

EPHEMERIS_TYPE = 0
CLASSIFICATION_TYPE = U
NORAD_CAT_ID   = 22219
ELEMENT_SET_NO = 999
REV_AT_EPOCH   = 72074
BSTAR          = -.95603E-4
MEAN_MOTION_DOT = -.229E-5
MEAN_MOTION_DDOT = 0

CCSDS_OMM_VERS = 2.0
CREATION_DATE  = 
ORIGINATOR     = 

OBJECT_NAME    = SL-16 R/B
OBJECT_ID      = 1992-076B
CENTER_NAME    = EARTH
REF_FRAME      = TEME
TIME_SYSTEM    = UTC
MEAN_ELEMENT_THEORY = SGP/SGP4

EPOCH          = 2026-03-26T11:44:52.613376
MEAN_MOTION    = 14.16863931
ECCENTRICITY   = .0010648
INCLINATION    = 71.0002
RA_OF_ASC_NODE = 152.9882
ARG_OF_PERICENTER = 64.8921
MEAN_ANOMALY   = 306.2864

EPHEMERIS_TYPE = 0
CLASSIFICATION_TYPE = U
NORAD_CAT_ID   = 22220
ELEMENT_SET_NO = 999
REV_AT_EPOCH   = 72421
BSTAR          = .29034E-4
MEAN_MOTION_DOT = .1E-6
MEAN_MOTION_DDOT = 0

CCSDS_OMM_VERS = 2.0
CREATION_DATE  = 
ORIGINATOR     = 

OBJECT_NAME    = COSMOS 2221
OBJECT_ID      = 1992-080A
CENTER_NAME    = EARTH
REF_FRAME      = TEME
TIME_SYSTEM    = UTC
MEAN_ELEMENT_THEORY = SGP/SGP4

EPOCH          = 2026-03-26T11:45:53.458848
MEAN_MOTION    = 14.96267099
ECCENTRICITY   = .0015385
INCLINATION    = 82.5007
RA_OF_ASC_NODE = 262.9828
ARG_OF_PERICENTER = 132.6259
MEAN_ANOMALY   = 227.6263

EPHEMERIS_TYPE = 0
CLASSIFICATION_TYPE = U
NORAD_CAT_ID   = 22236
ELEMENT_SET_NO = 999
REV_AT_EPOCH   = 78330
BSTAR          = .19208E-3
MEAN_MOTION_DOT = .2199E-4
MEAN_MOTION_DDOT = 0

CCSDS_OMM_VERS = 2.0
CREATION_DATE  = 
ORIGINATOR     = 

OBJECT_NAME    = SL-16 R/B
OBJECT_ID      = 1992-093B
CENTER_NAME    = EARTH
REF_FRAME      = TEME
TIME_SYSTEM    = UTC
MEAN_ELEMENT_THEORY = SGP/SGP4

EPOCH          = 2026-03-26T10:01:24.928032
MEAN_MOTION    = 14.15453184
ECCENTRICITY   = .0006422
INCLINATION    = 71.0233
RA_OF_ASC_NODE = 329.1521
ARG_OF_PERICENTER = 277.3538
MEAN_ANOMALY   = 82.6855

EPHEMERIS_TYPE = 0
CLASSIFICATION_TYPE = U
NORAD_CAT_ID   = 22285
ELEMENT_SET_NO = 999
REV_AT_EPOCH   = 71552
BSTAR          = .16998E-3
MEAN_MOTION_DOT = .284E-5
MEAN_MOTION_DDOT = 0

CCSDS_OMM_VERS = 2.0
CREATION_DATE  = 
ORIGINATOR     = 

OBJECT_NAME    = COSMOS 2228
OBJECT_ID      = 1992-094A
CENTER_NAME    = EARTH
REF_FRAME      = TEME
TIME_SYSTEM    = UTC
MEAN_ELEMENT_THEORY = SGP/SGP4

EPOCH          = 2026-03-26T11:53:17.430432
MEAN_MOTION    = 14.97272807
ECCENTRICITY   = .0016725
INCLINATION    = 82.5182
RA_OF_ASC_NODE = 221.2189
ARG_OF_PERICENTER = 243.1391
MEAN_ANOMALY   = 116.8122

EPHEMERIS_TYPE = 0
CLASSIFICATION_TYPE = U
NORAD_CAT_ID   = 22286
ELEMENT_SET_NO = 999
REV_AT_EPOCH   = 77857
BSTAR          = .18799E-3
MEAN_MOTION_DOT = .2209E-4
MEAN_MOTION_DDOT = 0

CCSDS_OMM_VERS = 2.0
CREATION_DATE  = 
ORIGINATOR     = 

OBJECT_NAME    = SL-16 R/B
OBJECT_ID      = 1993-016B
CENTER_NAME    = EARTH
REF_FRAME      = TEME
TIME_SYSTEM    = UTC
MEAN_ELEMENT_THEORY = SGP/SGP4

EPOCH          = 2026-03-26T12:43:46.521120
MEAN_MOTION    = 14.15305440
ECCENTRICITY   = .0012345
INCLINATION    = 71.0079
RA_OF_ASC_NODE = 179.8132
ARG_OF_PERICENTER = 292.3462
MEAN_ANOMALY   = 67.6352

EPHEMERIS_TYPE = 0
CLASSIFICATION_TYPE = U
NORAD_CAT_ID   = 22566
ELEMENT_SET_NO = 999
REV_AT_EPOCH   = 70455
BSTAR          = -.41751E-4
MEAN_MOTION_DOT = -.129E-5
MEAN_MOTION_DDOT = 0

