ERS-1                   
1 21574U 91050A   26085.51893193  .00000298  00000+0  10977-3 0  9999
2 21574  98.7869 104.1758 0032573 150.6960 209.6062 14.39461613818157
ARIANE 40 R/B           
1 21610U 91050F   26085.11377483  .00000294  00000+0  10032-3 0  9993
2 21610  98.1979 136.7312 0003693  44.4428 315.7059 14.42905128821361
INTERCOSMOS 25          
1 21819U 91086A   26085.33237920  .00001379  00000+0  26319-3 0  9998
2 21819  82.6020 299.9474 1486624  81.0745 295.5123 12.12054567498709
SL-8 R/B                
1 21876U 92008B   26085.44025913  .00000028  00000+0  12388-4 0  9997
2 21876  82.9228 255.3140 0035979  88.1350 300.9903 13.75969568711726
SL-8 R/B                
1 21938U 92020B   26085.41209479  .00000028  00000+0  13639-4 0  9998
2 21938  82.9309 141.3460 0027679 249.8780 121.0421 13.75550460703438
USA 81                  
1 21949U 92023A   26085.49448425  .00000164  00000+0  53417-4 0  9996
2 21949  85.0051 121.7436 0001880  68.1838 291.9554 14.32373221 97190
COSMOS 2219             
1 22219U 92076A   26085.42738428 -.00000229  00000+0 -95603-4 0  9990
2 22219  71.0628 343.0826 0018031 182.7023 177.4005 14.14091646720744
SL-16 R/B               
1 22220U 92076B   26085.48949784  .00000010  00000+0  29034-4 0  9998
2 22220  71.0002 152.9882 0010648  64.8921 306.2864 14.16863931724211
COSMOS 2221             
1 22236U 92080A   26085.49020207  .00002199  00000+0  19208-3 0  9992
2 22236  82.5007 262.9828 0015385 132.6259 227.6263 14.96267099783308
SL-16 R/B               
1 22285U 92093B   26085.41764963  .00000284  00000+0  16998-3 0  9992
2 22285  71.0233 329.1521 0006422 277.3538  82.6855 14.15453184715529
COSMOS 2228             
1 22286U 92094A   26085.49534063  .00002209  00000+0  18799-3 0  9998
2 22286  82.5182 221.2189 0016725 243.1391 116.8122 14.97272807778579
SL-16 R/B               
1 22566U 93016B   26085.53039955 -.00000129  00000+0 -41751-4 0  9995
2 22566  71.0079 179.8132 0012345 292.3462  67.6352 14.15305440704558
